{
  "type": "FeatureCollection",
  "licence": "Data © OpenStreetMap contributors, ODbL 1.0. http://osm.org/copyright",
  "features": [
    {
      "type": "Feature",
      "properties": {
        "place_id": 332532971,
        "osm_type": "relation",
        "osm_id": 1933718,
        "place_rank": 16,
        "category": "boundary",
        "type": "administrative",
        "importance": 0.490966716640447,
        "addresstype": "town",
        "name": "Belmont",
        "display_name": "Belmont, Middlesex County, Massachusetts, United States"
      },
      "bbox": [-71.2119464, 42.3750579, -71.1522445, 42.4153203],
      "geometry": {
        "type": "Polygon",
        "coordinates": [
          [
            [-71.2119464, 42.4063081],
            [-71.2112615, 42.4060832],
            [-71.2050166, 42.4043673],
            [-71.2026295, 42.4037108],
            [-71.2025941, 42.4036479],
            [-71.2025772, 42.403587],
            [-71.2026206, 42.4035134],
            [-71.2026031, 42.4033778],
            [-71.2025733, 42.4032983],
            [-71.2025438, 42.4032362],
            [-71.2024658, 42.4031654],
            [-71.2023988, 42.403117],
            [-71.2023611, 42.4030747],
            [-71.202338, 42.4030265],
            [-71.2022591, 42.4029606],
            [-71.2021948, 42.4028836],
            [-71.2020472, 42.4028175],
            [-71.2019715, 42.4027908],
            [-71.2019089, 42.402736],
            [-71.2018124, 42.4026183],
            [-71.2018161, 42.4025776],
            [-71.2017605, 42.4025131],
            [-71.2017212, 42.4024839],
            [-71.2017031, 42.4024345],
            [-71.2017963, 42.4022608],
            [-71.2018384, 42.4021476],
            [-71.2018469, 42.4021125],
            [-71.2018494, 42.4020768],
            [-71.2018219, 42.4020288],
            [-71.2016801, 42.4018554],
            [-71.2015908, 42.4017421],
            [-71.2015747, 42.4017048],
            [-71.2015787, 42.4016605],
            [-71.201641, 42.401596],
            [-71.2017393, 42.4014727],
            [-71.2017803, 42.4014048],
            [-71.2018128, 42.4013658],
            [-71.2018175, 42.4013289],
            [-71.2017863, 42.4012872],
            [-71.2017584, 42.401256],
            [-71.2017269, 42.4011744],
            [-71.2017092, 42.4010649],
            [-71.2016613, 42.4009765],
            [-71.2016226, 42.4009149],
            [-71.2016094, 42.4008777],
            [-71.2016096, 42.4008729],
            [-71.2016265, 42.4008272],
            [-71.2016234, 42.4005461],
            [-71.201581, 42.4004603],
            [-71.2015064, 42.4003877],
            [-71.2012771, 42.4001745],
            [-71.2011199, 42.4000382],
            [-71.2009172, 42.3998744],
            [-71.2007424, 42.3996554],
            [-71.2006209, 42.3994644],
            [-71.2006139, 42.3994619],
            [-71.2002904, 42.3993739],
            [-71.200264, 42.399344],
            [-71.2002446, 42.3993239],
            [-71.2002337, 42.3993078],
            [-71.2002273, 42.3992949],
            [-71.2002247, 42.3992839],
            [-71.2002207, 42.3992532],
            [-71.20022, 42.3992397],
            [-71.2002211, 42.3992308],
            [-71.2002228, 42.3992226],
            [-71.2002268, 42.3992095],
            [-71.2002418, 42.3991628],
            [-71.20025, 42.3991397],
            [-71.2002579, 42.3991054],
            [-71.2002589, 42.3990849],
            [-71.2002583, 42.3990737],
            [-71.2002557, 42.3990628],
            [-71.200251, 42.3990497],
            [-71.200245, 42.3990408],
            [-71.2002385, 42.3990311],
            [-71.2002306, 42.3990153],
            [-71.2002209, 42.3989974],
            [-71.2002146, 42.3989921],
            [-71.2002036, 42.3989843],
            [-71.2001799, 42.3989692],
            [-71.2001708, 42.3989596],
            [-71.2001694, 42.3989531],
            [-71.2001679, 42.3989436],
            [-71.2001663, 42.3989148],
            [-71.2001664, 42.3988951],
            [-71.2001674, 42.3988656],
            [-71.2001676, 42.3988574],
            [-71.2001682, 42.3988423],
            [-71.2001681, 42.3988345],
            [-71.2001681, 42.3988201],
            [-71.2001674, 42.3988155],
            [-71.2001678, 42.3988003],
            [-71.2001673, 42.3987944],
            [-71.2001654, 42.3987864],
            [-71.2001617, 42.3987788],
            [-71.2001576, 42.3987702],
            [-71.2001496, 42.3987572],
            [-71.2001354, 42.3987391],
            [-71.2001069, 42.3987057],
            [-71.200102, 42.3986989],
            [-71.2000969, 42.3986901],
            [-71.2000882, 42.3986657],
            [-71.2000757, 42.398619],
            [-71.2000694, 42.3986016],
            [-71.2000642, 42.3985916],
            [-71.2000594, 42.3985852],
            [-71.2000504, 42.3985766],
            [-71.2000221, 42.3985555],
            [-71.2000042, 42.3985461],
            [-71.1999901, 42.3985413],
            [-71.1999786, 42.3985393],
            [-71.1999401, 42.3985441],
            [-71.1999152, 42.3985464],
            [-71.1999069, 42.398547],
            [-71.1998944, 42.398546],
            [-71.1998824, 42.3985441],
            [-71.1998585, 42.3985375],
            [-71.1998493, 42.3985341],
            [-71.1998354, 42.3985285],
            [-71.1998297, 42.3985255],
            [-71.1997864, 42.398497],
            [-71.1997548, 42.3984787],
            [-71.1997171, 42.3984525],
            [-71.1997059, 42.3984431],
            [-71.1996978, 42.3984347],
            [-71.1996938, 42.3984299],
            [-71.1996841, 42.3984162],
            [-71.1996719, 42.3983955],
            [-71.1996679, 42.3983889],
            [-71.1996628, 42.3983815],
            [-71.1996484, 42.3983654],
            [-71.1996313, 42.398344],
            [-71.1996193, 42.3983253],
            [-71.1996019, 42.3982941],
            [-71.1995846, 42.3982691],
            [-71.1995788, 42.3982605],
            [-71.1995622, 42.3982352],
            [-71.199555, 42.398221],
            [-71.1995505, 42.3982069],
            [-71.1995485, 42.3981964],
            [-71.1995474, 42.3981628],
            [-71.199545, 42.3981433],
            [-71.1995412, 42.3981284],
            [-71.1995331, 42.3981023],
            [-71.1995329, 42.3980879],
            [-71.1995407, 42.3980084],
            [-71.1995436, 42.3979913],
            [-71.1995514, 42.3979664],
            [-71.1995631, 42.3979355],
            [-71.1995717, 42.3979115],
            [-71.1995736, 42.3978868],
            [-71.1995775, 42.3978679],
            [-71.1995863, 42.397843],
            [-71.1995874, 42.3978285],
            [-71.1995866, 42.3978178],
            [-71.1995856, 42.397802],
            [-71.1995859, 42.3977923],
            [-71.1995866, 42.3977829],
            [-71.1995905, 42.3977669],
            [-71.199591, 42.3977529],
            [-71.1995888, 42.3977423],
            [-71.1995799, 42.397723],
            [-71.1995716, 42.3977072],
            [-71.1995499, 42.3976707],
            [-71.1995437, 42.397659],
            [-71.1995342, 42.3976341],
            [-71.199531, 42.3976259],
            [-71.1995262, 42.3976161],
            [-71.1995236, 42.3976079],
            [-71.1995206, 42.3975933],
            [-71.1995181, 42.3975744],
            [-71.1995173, 42.3975642],
            [-71.1995179, 42.397536],
            [-71.1995172, 42.3975128],
            [-71.1995147, 42.397482],
            [-71.1995118, 42.3974694],
            [-71.1995064, 42.397457],
            [-71.1994954, 42.3974387],
            [-71.1994609, 42.3973935],
            [-71.1994431, 42.3973653],
            [-71.1994352, 42.3973501],
            [-71.199431, 42.3973421],
            [-71.1994305, 42.3973393],
            [-71.1994299, 42.3973364],
            [-71.1994283, 42.3973321],
            [-71.1994273, 42.3973269],
            [-71.1994122, 42.3973015],
            [-71.1994082, 42.3972998],
            [-71.1994019, 42.3972952],
            [-71.1993948, 42.3972911],
            [-71.1993829, 42.397284],
            [-71.1993759, 42.3972783],
            [-71.1993699, 42.3972755],
            [-71.1993656, 42.3972715],
            [-71.1993615, 42.3972694],
            [-71.1993574, 42.3972657],
            [-71.1993505, 42.3972613],
            [-71.1993201, 42.3972382],
            [-71.1993066, 42.3972274],
            [-71.1992972, 42.3972189],
            [-71.1992908, 42.3972119],
            [-71.1992829, 42.3972012],
            [-71.1992521, 42.3971536],
            [-71.1992402, 42.3971371],
            [-71.1992263, 42.3971131],
            [-71.1992167, 42.3970988],
            [-71.1992079, 42.3970883],
            [-71.1991865, 42.3970661],
            [-71.1991506, 42.3970309],
            [-71.1991297, 42.3970089],
            [-71.199114, 42.3969945],
            [-71.1990938, 42.3969786],
            [-71.1990677, 42.3969611],
            [-71.1990466, 42.3969457],
            [-71.199027, 42.3969292],
            [-71.1990155, 42.3969175],
            [-71.1990052, 42.3969053],
            [-71.1989949, 42.3968921],
            [-71.1989759, 42.3968657],
            [-71.1989608, 42.3968472],
            [-71.1989502, 42.3968364],
            [-71.1989055, 42.3967948],
            [-71.1988538, 42.3967427],
            [-71.1988167, 42.3967088],
            [-71.1987931, 42.3966834],
            [-71.1987741, 42.3966643],
            [-71.1987708, 42.3966613],
            [-71.1987632, 42.3966541],
            [-71.1987562, 42.3966483],
            [-71.1987487, 42.3966422],
            [-71.1987438, 42.3966391],
            [-71.1987362, 42.3966321],
            [-71.1987291, 42.3966269],
            [-71.1987221, 42.3966233],
            [-71.1987196, 42.3966213],
            [-71.1987079, 42.3966159],
            [-71.1986912, 42.3965996],
            [-71.1986846, 42.396593],
            [-71.1986826, 42.3965895],
            [-71.1986778, 42.3965833],
            [-71.1986769, 42.396581],
            [-71.1986634, 42.3965616],
            [-71.1986533, 42.3965484],
            [-71.1986248, 42.396515],
            [-71.198532, 42.3964203],
            [-71.1984891, 42.3963733],
            [-71.1984703, 42.3963556],
            [-71.1984525, 42.3963402],
            [-71.19842, 42.3963089],
            [-71.1984169, 42.3963052],
            [-71.1983931, 42.3962894],
            [-71.1983785, 42.396281],
            [-71.1983626, 42.3962729],
            [-71.198341, 42.396263],
            [-71.1983052, 42.3962498],
            [-71.1982881, 42.3962427],
            [-71.1982809, 42.3962391],
            [-71.1982676, 42.3962307],
            [-71.1982522, 42.3962176],
            [-71.1982412, 42.3962045],
            [-71.1982373, 42.3961969],
            [-71.1982339, 42.396187],
            [-71.1982266, 42.3961569],
            [-71.1982245, 42.3961229],
            [-71.1982232, 42.3961143],
            [-71.1982205, 42.3961073],
            [-71.1982107, 42.3960932],
            [-71.198196, 42.3960749],
            [-71.1981887, 42.3960682],
            [-71.1981697, 42.3960561],
            [-71.1981519, 42.396047],
            [-71.1980755, 42.3960246],
            [-71.1980438, 42.3960214],
            [-71.1980224, 42.3960174],
            [-71.1980131, 42.396015],
            [-71.1979962, 42.3960095],
            [-71.1979797, 42.3960034],
            [-71.1979181, 42.3959781],
            [-71.1978908, 42.3959646],
            [-71.1978716, 42.395952],
            [-71.1978443, 42.39594],
            [-71.1978299, 42.3959357],
            [-71.1977993, 42.3959333],
            [-71.1977887, 42.3959336],
            [-71.197782, 42.3959325],
            [-71.1977556, 42.3959271],
            [-71.1977321, 42.3959203],
            [-71.1977039, 42.3959101],
            [-71.1976692, 42.3958965],
            [-71.1976417, 42.3958876],
            [-71.1976279, 42.3958826],
            [-71.197578, 42.3958568],
            [-71.197554, 42.3958467],
            [-71.1975252, 42.3958372],
            [-71.1974945, 42.395829],
            [-71.1974858, 42.395826],
            [-71.1974618, 42.3958166],
            [-71.1974505, 42.3958108],
            [-71.1974327, 42.3958005],
            [-71.1974172, 42.3957902],
            [-71.1973922, 42.3957711],
            [-71.1973797, 42.3957592],
            [-71.1973749, 42.3957537],
            [-71.1973726, 42.39575],
            [-71.1973713, 42.3957465],
            [-71.1973681, 42.3957419],
            [-71.1973656, 42.3957401],
            [-71.1973605, 42.3957372],
            [-71.1973542, 42.3957356],
            [-71.1973531, 42.3957348],
            [-71.1973483, 42.3957341],
            [-71.1973373, 42.3957304],
            [-71.1973148, 42.3957207],
            [-71.1973093, 42.3957172],
            [-71.197303, 42.3957145],
            [-71.1972971, 42.3957105],
            [-71.1972873, 42.3957026],
            [-71.1972732, 42.3956946],
            [-71.1972588, 42.3956773],
            [-71.1972521, 42.3956721],
            [-71.1972461, 42.3956673],
            [-71.1972426, 42.3956639],
            [-71.197237, 42.3956607],
            [-71.1972322, 42.3956573],
            [-71.1972266, 42.3956547],
            [-71.1972213, 42.3956519],
            [-71.1972113, 42.3956479],
            [-71.1972051, 42.395647],
            [-71.1971972, 42.3956462],
            [-71.1971846, 42.3956417],
            [-71.1971754, 42.395639],
            [-71.1971718, 42.3956379],
            [-71.1971674, 42.3956362],
            [-71.1971636, 42.3956348],
            [-71.1971596, 42.3956329],
            [-71.1971468, 42.395628],
            [-71.1971336, 42.3956234],
            [-71.1971207, 42.3956159],
            [-71.1971124, 42.3956096],
            [-71.1970945, 42.3955968],
            [-71.1970624, 42.3955783],
            [-71.1970535, 42.3955741],
            [-71.197027, 42.3955638],
            [-71.1970107, 42.3955548],
            [-71.1970049, 42.3955501],
            [-71.1969606, 42.3955103],
            [-71.1969353, 42.3954876],
            [-71.1969227, 42.3954832],
            [-71.1968149, 42.3954634],
            [-71.1967764, 42.3954249],
            [-71.1966266, 42.3952289],
            [-71.1965554, 42.3950695],
            [-71.1964838, 42.3949193],
            [-71.1963981, 42.3946904],
            [-71.1962957, 42.394405],
            [-71.196284, 42.3943613],
            [-71.196284, 42.3943108],
            [-71.1962942, 42.3942577],
            [-71.1963301, 42.3940306],
            [-71.1964282, 42.3939094],
            [-71.1965456, 42.3938345],
            [-71.1966668, 42.3937886],
            [-71.1968172, 42.3937411],
            [-71.1973045, 42.3934056],
            [-71.1976542, 42.3931672],
            [-71.1977353, 42.3930828],
            [-71.1977633, 42.3929354],
            [-71.1978104, 42.3928777],
            [-71.1979036, 42.3928128],
            [-71.1979403, 42.3927841],
            [-71.1979684, 42.3927354],
            [-71.1979639, 42.3926779],
            [-71.1979344, 42.3926424],
            [-71.1978489, 42.392592],
            [-71.1977978, 42.3925797],
            [-71.1977731, 42.3925637],
            [-71.1977016, 42.392452],
            [-71.1976603, 42.3923764],
            [-71.1976243, 42.3923151],
            [-71.197605, 42.392296],
            [-71.1975826, 42.3922829],
            [-71.1975202, 42.3922656],
            [-71.1974498, 42.3922282],
            [-71.197406, 42.3921795],
            [-71.1973512, 42.3921697],
            [-71.1972922, 42.3921802],
            [-71.1972493, 42.3921781],
            [-71.1972065, 42.392167],
            [-71.1971616, 42.3921418],
            [-71.197074, 42.3920695],
            [-71.1970282, 42.3919733],
            [-71.197024, 42.3918704],
            [-71.1970109, 42.3917262],
            [-71.1969974, 42.3916576],
            [-71.1969609, 42.3915545],
            [-71.1969907, 42.3913971],
            [-71.1969537, 42.3911938],
            [-71.1969536, 42.3910982],
            [-71.1969589, 42.3909918],
            [-71.1969868, 42.390913],
            [-71.1969735, 42.3908377],
            [-71.196932, 42.3907996],
            [-71.1968535, 42.3907652],
            [-71.1967565, 42.3907204],
            [-71.1967244, 42.3906551],
            [-71.1967435, 42.3905247],
            [-71.1967811, 42.3904082],
            [-71.1968001, 42.3903259],
            [-71.1968153, 42.3900411],
            [-71.1968486, 42.3898628],
            [-71.1968488, 42.3898182],
            [-71.1968167, 42.3897358],
            [-71.1967383, 42.3896876],
            [-71.1966598, 42.3896461],
            [-71.1964429, 42.3895083],
            [-71.1962446, 42.3893397],
            [-71.196074, 42.3892363],
            [-71.195885, 42.3890882],
            [-71.195686, 42.3888995],
            [-71.1955672, 42.3887512],
            [-71.195245, 42.3883935],
            [-71.1951711, 42.3883556],
            [-71.1950833, 42.3883382],
            [-71.1949539, 42.3882727],
            [-71.1948758, 42.3881695],
            [-71.1948856, 42.3880529],
            [-71.194946, 42.3879879],
            [-71.1951736, 42.3878341],
            [-71.1953128, 42.3877693],
            [-71.1954055, 42.3877213],
            [-71.1954429, 42.3876701],
            [-71.195457, 42.3876016],
            [-71.1954296, 42.3875294],
            [-71.1954439, 42.3874642],
            [-71.1955311, 42.3873998],
            [-71.1941707, 42.3860403],
            [-71.1892153, 42.3807072],
            [-71.1886761, 42.3806286],
            [-71.1885262, 42.3805903],
            [-71.1879307, 42.3804907],
            [-71.187248, 42.3803839],
            [-71.1869686, 42.380359],
            [-71.1864607, 42.380328],
            [-71.1860361, 42.3803448],
            [-71.1854242, 42.380393],
            [-71.1851978, 42.3803924],
            [-71.1841859, 42.3803607],
            [-71.1831644, 42.3803261],
            [-71.1826344, 42.3802996],
            [-71.1818155, 42.3802474],
            [-71.1813434, 42.38021],
            [-71.1809869, 42.38017],
            [-71.1804809, 42.3801579],
            [-71.1801675, 42.380182],
            [-71.1799459, 42.3801885],
            [-71.1797772, 42.380188],
            [-71.1795315, 42.3801731],
            [-71.1791223, 42.3800862],
            [-71.1787709, 42.3800137],
            [-71.1782511, 42.3798837],
            [-71.1776541, 42.3797391],
            [-71.1771774, 42.3796663],
            [-71.176524, 42.3795781],
            [-71.1757907, 42.3794373],
            [-71.175314, 42.3793538],
            [-71.1746401, 42.3792125],
            [-71.1739807, 42.3790606],
            [-71.1734801, 42.3789306],
            [-71.1725948, 42.378678],
            [-71.1719645, 42.3784796],
            [-71.1713487, 42.3782849],
            [-71.1712041, 42.3782773],
            [-71.171045, 42.3782769],
            [-71.170934, 42.3783302],
            [-71.1708622, 42.3783319],
            [-71.1708039, 42.3783191],
            [-71.1706838, 42.3782437],
            [-71.1704292, 42.3780857],
            [-71.1699965, 42.377814],
            [-71.1695495, 42.3776867],
            [-71.1693339, 42.3776483],
            [-71.1690825, 42.3775924],
            [-71.1686298, 42.3775196],
            [-71.1670123, 42.377267],
            [-71.1656253, 42.3770393],
            [-71.1649605, 42.3769526],
            [-71.1647489, 42.3769189],
            [-71.1645082, 42.3768896],
            [-71.1640312, 42.3768387],
            [-71.1632749, 42.376798],
            [-71.1624841, 42.3767555],
            [-71.1618628, 42.3767221],
            [-71.1614202, 42.3766983],
            [-71.1611023, 42.3766723],
            [-71.1607748, 42.3766285],
            [-71.1600239, 42.3764655],
            [-71.1596195, 42.3764035],
            [-71.1590758, 42.3762483],
            [-71.1586042, 42.3761361],
            [-71.1580412, 42.3759629],
            [-71.1577959, 42.3758836],
            [-71.1575649, 42.3758187],
            [-71.1570646, 42.3756742],
            [-71.1567134, 42.3755517],
            [-71.1562685, 42.3753812],
            [-71.1558659, 42.3752816],
            [-71.1556329, 42.3752069],
            [-71.1555108, 42.3751801],
            [-71.1554145, 42.3751574],
            [-71.155241, 42.3751542],
            [-71.154885, 42.3751115],
            [-71.1547837, 42.3750993],
            [-71.1545488, 42.375076],
            [-71.1543614, 42.3750579],
            [-71.1543725, 42.3750939],
            [-71.155685, 42.3790075],
            [-71.1562312, 42.3806362],
            [-71.1550506, 42.3802],
            [-71.1550061, 42.3803167],
            [-71.1553339, 42.3809085],
            [-71.1552005, 42.381164],
            [-71.1556228, 42.3814807],
            [-71.1559114, 42.3815581],
            [-71.1565562, 42.3817123],
            [-71.1569605, 42.3818528],
            [-71.1573001, 42.3819801],
            [-71.157634, 42.3820985],
            [-71.1577691, 42.3820902],
            [-71.1578181, 42.3823453],
            [-71.1578097, 42.3824544],
            [-71.1578481, 42.3825523],
            [-71.1579707, 42.3828054],
            [-71.15814, 42.3830416],
            [-71.1603989, 42.386542],
            [-71.1588268, 42.3867522],
            [-71.1585936, 42.3867814],
            [-71.1583822, 42.3868295],
            [-71.15823, 42.3869098],
            [-71.1581073, 42.3870317],
            [-71.1580583, 42.3871218],
            [-71.158001, 42.3871659],
            [-71.1578917, 42.3872659],
            [-71.1577951, 42.3874221],
            [-71.157745, 42.3875564],
            [-71.1577368, 42.3876922],
            [-71.1574486, 42.3887835],
            [-71.1573048, 42.3893672],
            [-71.1571304, 42.3900374],
            [-71.1571077, 42.3901183],
            [-71.1571032, 42.390192],
            [-71.1571047, 42.3902883],
            [-71.1571392, 42.3903798],
            [-71.1573038, 42.390909],
            [-71.1584522, 42.3945442],
            [-71.1583845, 42.3945864],
            [-71.1563848, 42.3958319],
            [-71.1522445, 42.4008155],
            [-71.1531934, 42.4011029],
            [-71.1555394, 42.4020947],
            [-71.1563206, 42.402534],
            [-71.1572862, 42.4024295],
            [-71.1574704, 42.40244],
            [-71.1576273, 42.4024628],
            [-71.1578083, 42.4024992],
            [-71.1580837, 42.4025613],
            [-71.1585372, 42.4028235],
            [-71.1589227, 42.4030127],
            [-71.1595069, 42.4032874],
            [-71.1599225, 42.4034621],
            [-71.159805, 42.4035694],
            [-71.1606259, 42.403976],
            [-71.1618519, 42.40436],
            [-71.162268, 42.4044203],
            [-71.1623934, 42.4044237],
            [-71.162532, 42.4044689],
            [-71.1626706, 42.4045319],
            [-71.1627829, 42.4046097],
            [-71.1631581, 42.4048601],
            [-71.1634893, 42.4050267],
            [-71.1637242, 42.4051303],
            [-71.1639419, 42.4052436],
            [-71.1640555, 42.4053058],
            [-71.1640671, 42.4053774],
            [-71.1640184, 42.4054444],
            [-71.1641462, 42.4055122],
            [-71.1642031, 42.40555],
            [-71.1637933, 42.405762],
            [-71.1652101, 42.4061609],
            [-71.1668641, 42.4067027],
            [-71.1708456, 42.4081988],
            [-71.1715762, 42.4084651],
            [-71.1722872, 42.4087049],
            [-71.1731626, 42.4089962],
            [-71.1743623, 42.4093525],
            [-71.1753889, 42.4096602],
            [-71.1762146, 42.4098771],
            [-71.1767723, 42.4100106],
            [-71.1771516, 42.4101076],
            [-71.177936, 42.4102566],
            [-71.178459, 42.4103529],
            [-71.1797207, 42.4105508],
            [-71.181043, 42.4107728],
            [-71.1821477, 42.4109786],
            [-71.1830451, 42.4111976],
            [-71.1838992, 42.4114246],
            [-71.1845917, 42.411662],
            [-71.1872338, 42.4125746],
            [-71.1899284, 42.4136068],
            [-71.1919686, 42.4144685],
            [-71.1942901, 42.4153203],
            [-71.1945158, 42.4149344],
            [-71.1952973, 42.4151723],
            [-71.1950013, 42.4146951],
            [-71.1946727, 42.4141325],
            [-71.1945696, 42.4139718],
            [-71.1942431, 42.4133876],
            [-71.2026422, 42.4148297],
            [-71.20407, 42.4133575],
            [-71.2119464, 42.4063081]
          ]
        ]
      }
    }
  ]
}
