{
  "type": "FeatureCollection",
  "licence": "Data © OpenStreetMap contributors, ODbL 1.0. http://osm.org/copyright",
  "features": [
    {
      "type": "Feature",
      "properties": {
        "place_id": 335073087,
        "osm_type": "relation",
        "osm_id": 1840167,
        "place_rank": 16,
        "category": "boundary",
        "type": "administrative",
        "importance": 0.530880212886089,
        "addresstype": "town",
        "name": "Lexington",
        "display_name": "Lexington, Middlesex County, Massachusetts, United States"
      },
      "bbox": [-71.272695, 42.4063081, -71.1778858, 42.4900216],
      "geometry": {
        "type": "Polygon",
        "coordinates": [
          [
            [-71.272695, 42.4597047],
            [-71.2697103, 42.4441127],
            [-71.2696794, 42.4439513],
            [-71.2696693, 42.4438985],
            [-71.2690177, 42.4404938],
            [-71.2679622, 42.4371688],
            [-71.2662811, 42.4304441],
            [-71.266262, 42.430367],
            [-71.2661504, 42.4299164],
            [-71.2672289, 42.4244463],
            [-71.2668695, 42.4243284],
            [-71.2668329, 42.4243164],
            [-71.2329119, 42.4131875],
            [-71.2119464, 42.4063081],
            [-71.20407, 42.4133575],
            [-71.2026422, 42.4148297],
            [-71.2012006, 42.4163408],
            [-71.1991171, 42.418538],
            [-71.1962061, 42.4215407],
            [-71.1939111, 42.4237436],
            [-71.1922017, 42.4253843],
            [-71.1920476, 42.4255322],
            [-71.1876101, 42.4301922],
            [-71.1873852, 42.4304284],
            [-71.1872415, 42.4305793],
            [-71.1866307, 42.4312081],
            [-71.185558, 42.4323126],
            [-71.1851897, 42.4327588],
            [-71.182277, 42.4362876],
            [-71.1817756, 42.4367355],
            [-71.1778858, 42.44021],
            [-71.1786491, 42.4407695],
            [-71.1787575, 42.4408504],
            [-71.1789814, 42.4410143],
            [-71.182563, 42.4436457],
            [-71.1825433, 42.443893],
            [-71.1829794, 42.4439715],
            [-71.1835294, 42.4440014],
            [-71.183504, 42.4440695],
            [-71.1834599, 42.4441875],
            [-71.1839377, 42.4442875],
            [-71.1838155, 42.4446097],
            [-71.1857128, 42.4450042],
            [-71.1861572, 42.445382],
            [-71.1864516, 42.4456264],
            [-71.1864544, 42.4456264],
            [-71.1874523, 42.4472575],
            [-71.1874689, 42.4472686],
            [-71.1896355, 42.4498297],
            [-71.190566, 42.4504547],
            [-71.1938436, 42.4531408],
            [-71.1954131, 42.4535907],
            [-71.1984461, 42.4569824],
            [-71.2021248, 42.4598499],
            [-71.2069672, 42.4636243],
            [-71.2043085, 42.4658383],
            [-71.2102236, 42.4707275],
            [-71.2106112, 42.4685196],
            [-71.2105919, 42.4684088],
            [-71.2105595, 42.4683195],
            [-71.2105038, 42.4682285],
            [-71.2104794, 42.4681179],
            [-71.2105092, 42.4679676],
            [-71.210539, 42.4677987],
            [-71.210556, 42.4677005],
            [-71.2105938, 42.4675992],
            [-71.2106702, 42.4675097],
            [-71.2107396, 42.4674582],
            [-71.210802, 42.4674308],
            [-71.2108354, 42.4673879],
            [-71.2108191, 42.4673356],
            [-71.2108319, 42.4672558],
            [-71.2108818, 42.4672007],
            [-71.2109319, 42.4671608],
            [-71.2109781, 42.4670258],
            [-71.2109991, 42.4669829],
            [-71.211049, 42.4669461],
            [-71.2111818, 42.4669403],
            [-71.211348, 42.4668977],
            [-71.211402, 42.4668549],
            [-71.2114233, 42.4667321],
            [-71.2114653, 42.4666401],
            [-71.2115276, 42.4665849],
            [-71.2116077, 42.4665414],
            [-71.2116262, 42.4665361],
            [-71.2116481, 42.4665387],
            [-71.211756, 42.466564],
            [-71.211804, 42.4665678],
            [-71.2118289, 42.4665669],
            [-71.2118441, 42.4665537],
            [-71.2118567, 42.4665311],
            [-71.2118594, 42.4665182],
            [-71.2118602, 42.4665047],
            [-71.2118511, 42.466472],
            [-71.2118428, 42.4664602],
            [-71.2118333, 42.466453],
            [-71.2118081, 42.4664408],
            [-71.2117976, 42.4664317],
            [-71.2117958, 42.4664164],
            [-71.2118065, 42.4663891],
            [-71.2118731, 42.4663493],
            [-71.2120435, 42.4662822],
            [-71.2121155, 42.4662443],
            [-71.2409062, 42.4900216],
            [-71.2519867, 42.485016],
            [-71.2565956, 42.4784993],
            [-71.2615155, 42.4762465],
            [-71.272695, 42.4597047]
          ]
        ]
      }
    }
  ]
}
