{
  "type": "FeatureCollection",
  "licence": "Data © OpenStreetMap contributors, ODbL 1.0. http://osm.org/copyright",
  "features": [
    {
      "type": "Feature",
      "properties": {
        "place_id": 336879385,
        "osm_type": "relation",
        "osm_id": 1842125,
        "place_rank": 16,
        "category": "boundary",
        "type": "administrative",
        "importance": 0.513196875859279,
        "addresstype": "city",
        "name": "Melrose",
        "display_name": "Melrose, Middlesex County, Massachusetts, 02176, United States"
      },
      "bbox": [-71.0829193, 42.4388403, -71.0258356, 42.4759249],
      "geometry": {
        "type": "Polygon",
        "coordinates": [
          [
            [-71.0829193, 42.4388403],
            [-71.0258356, 42.444709],
            [-71.0298323, 42.4492411],
            [-71.037319, 42.4577313],
            [-71.0533646, 42.4759249],
            [-71.0613227, 42.4741959],
            [-71.061356, 42.47266],
            [-71.0693053, 42.4716375],
            [-71.0761104, 42.4734705],
            [-71.0761896, 42.4734918],
            [-71.0781525, 42.4740206],
            [-71.0791899, 42.4616482],
            [-71.0821162, 42.4439404],
            [-71.0829193, 42.4388403]
          ]
        ]
      }
    }
  ]
}
