{
  "type": "FeatureCollection",
  "licence": "Data © OpenStreetMap contributors, ODbL 1.0. http://osm.org/copyright",
  "features": [
    {
      "type": "Feature",
      "properties": {
        "place_id": 338206179,
        "osm_type": "relation",
        "osm_id": 2315739,
        "place_rank": 16,
        "category": "boundary",
        "type": "administrative",
        "importance": 0.492610580190581,
        "addresstype": "town",
        "name": "Milton",
        "display_name": "Milton, Norfolk County, Massachusetts, United States"
      },
      "bbox": [-71.130749, 42.2007053, -71.0314244, 42.2781001],
      "geometry": {
        "type": "Polygon",
        "coordinates": [
          [
            [-71.130749, 42.2279112],
            [-71.1306622, 42.2278231],
            [-71.1301701, 42.2273522],
            [-71.1296637, 42.2268676],
            [-71.1276769, 42.2249664],
            [-71.1274226, 42.224723],
            [-71.1269489, 42.2242697],
            [-71.1269074, 42.22423],
            [-71.1253517, 42.2227412],
            [-71.1251212, 42.2225206],
            [-71.1247591, 42.2221741],
            [-71.1244671, 42.2218946],
            [-71.1243445, 42.2217772],
            [-71.1241112, 42.221554],
            [-71.1240441, 42.2214898],
            [-71.1236807, 42.221142],
            [-71.1234182, 42.2208908],
            [-71.1226548, 42.2201602],
            [-71.1226271, 42.2201337],
            [-71.1224942, 42.2200065],
            [-71.1218954, 42.2194335],
            [-71.1218603, 42.2193998],
            [-71.119696, 42.2173284],
            [-71.1141925, 42.212061],
            [-71.102963, 42.2007053],
            [-71.1008288, 42.2014756],
            [-71.100791, 42.2014488],
            [-71.1007627, 42.2014342],
            [-71.1007207, 42.2014433],
            [-71.1005667, 42.2014967],
            [-71.1004782, 42.2015017],
            [-71.1001983, 42.2014378],
            [-71.1001174, 42.2013854],
            [-71.1000477, 42.2013358],
            [-71.0999336, 42.2012833],
            [-71.0998486, 42.2012939],
            [-71.0997895, 42.2013211],
            [-71.0997046, 42.2013263],
            [-71.0995977, 42.2013259],
            [-71.0995094, 42.2012845],
            [-71.0994248, 42.2012348],
            [-71.0993328, 42.2012235],
            [-71.0991737, 42.2012669],
            [-71.0989559, 42.201299],
            [-71.0988895, 42.201318],
            [-71.0987863, 42.2013039],
            [-71.0986476, 42.2013234],
            [-71.0985901, 42.201402],
            [-71.098549, 42.2014786],
            [-71.0984712, 42.2015332],
            [-71.0983011, 42.2016122],
            [-71.0982123, 42.2016584],
            [-71.0980648, 42.2016387],
            [-71.09798, 42.2016466],
            [-71.0979207, 42.2016739],
            [-71.0979056, 42.2017178],
            [-71.0978906, 42.2017671],
            [-71.0977909, 42.2017804],
            [-71.0977208, 42.2017829],
            [-71.0976616, 42.2018074],
            [-71.0975676, 42.2018641],
            [-71.0975136, 42.2018864],
            [-71.0974657, 42.2018835],
            [-71.0973883, 42.2018586],
            [-71.0973103, 42.2018463],
            [-71.0972558, 42.2018388],
            [-71.0972166, 42.2018439],
            [-71.097193, 42.2018469],
            [-71.0971558, 42.2018769],
            [-71.0969968, 42.2019367],
            [-71.0968561, 42.2020214],
            [-71.0967375, 42.2021195],
            [-71.096586, 42.2021492],
            [-71.0964309, 42.2021734],
            [-71.0960032, 42.2021471],
            [-71.0956563, 42.2021173],
            [-71.0955902, 42.2021155],
            [-71.0955293, 42.2021217],
            [-71.095414, 42.2021535],
            [-71.0953528, 42.2021703],
            [-71.0951623, 42.2022227],
            [-71.0948437, 42.2023323],
            [-71.0945777, 42.2023972],
            [-71.0943156, 42.202432],
            [-71.0937694, 42.2024547],
            [-71.0930907, 42.202455],
            [-71.0928397, 42.2024734],
            [-71.0926073, 42.2024697],
            [-71.0919359, 42.2024454],
            [-71.0910214, 42.202423],
            [-71.0904129, 42.2023879],
            [-71.0897522, 42.2023571],
            [-71.0894504, 42.2023433],
            [-71.0892145, 42.2023014],
            [-71.0889789, 42.2022484],
            [-71.088691, 42.2022227],
            [-71.0884698, 42.2022603],
            [-71.0883363, 42.2023502],
            [-71.0883168, 42.2023794],
            [-71.0882432, 42.2024898],
            [-71.0881722, 42.2026166],
            [-71.0881574, 42.2026431],
            [-71.0880536, 42.2028453],
            [-71.0880042, 42.2029416],
            [-71.0879161, 42.2030882],
            [-71.0878661, 42.2031714],
            [-71.0876694, 42.2033737],
            [-71.0874808, 42.2034333],
            [-71.0873883, 42.2034741],
            [-71.0873584, 42.2035371],
            [-71.0873976, 42.203754],
            [-71.0873857, 42.2038774],
            [-71.087352, 42.203954],
            [-71.0870966, 42.2040793],
            [-71.0868637, 42.2041717],
            [-71.0866425, 42.2041626],
            [-71.0864394, 42.2041784],
            [-71.0863681, 42.2042009],
            [-71.0863176, 42.2041752],
            [-71.0863009, 42.2041146],
            [-71.0862816, 42.2040763],
            [-71.0862363, 42.2040562],
            [-71.0861305, 42.2040264],
            [-71.0860494, 42.2040014],
            [-71.0859498, 42.2040148],
            [-71.0857284, 42.204025],
            [-71.0855327, 42.2040407],
            [-71.0853184, 42.2039662],
            [-71.0851616, 42.2039948],
            [-71.0849513, 42.2039794],
            [-71.0846678, 42.203942],
            [-71.0846099, 42.2039397],
            [-71.0845229, 42.2039362],
            [-71.0842666, 42.203926],
            [-71.0841051, 42.2039254],
            [-71.0840068, 42.2039869],
            [-71.0839139, 42.2039829],
            [-71.0838016, 42.2039462],
            [-71.0837084, 42.2039713],
            [-71.0836952, 42.2040479],
            [-71.083654, 42.2040693],
            [-71.0836105, 42.2040784],
            [-71.083478, 42.2040505],
            [-71.0834637, 42.2039886],
            [-71.0834199, 42.2039557],
            [-71.0833527, 42.203967],
            [-71.0832679, 42.204017],
            [-71.0832089, 42.2040277],
            [-71.0831259, 42.2040056],
            [-71.0829495, 42.2040558],
            [-71.0828663, 42.2040774],
            [-71.082846, 42.2041573],
            [-71.082772, 42.2042481],
            [-71.0827277, 42.2042915],
            [-71.0830012, 42.2045689],
            [-71.093189, 42.2139357],
            [-71.0530211, 42.2291733],
            [-71.0608336, 42.2419664],
            [-71.0610813, 42.242372],
            [-71.0503584, 42.2482786],
            [-71.0322048, 42.2582769],
            [-71.0314244, 42.2592379],
            [-71.0416722, 42.2664272],
            [-71.0416873, 42.2665963],
            [-71.0416651, 42.2668335],
            [-71.041684, 42.2670558],
            [-71.0417372, 42.2672277],
            [-71.0418102, 42.2674451],
            [-71.041816, 42.2676017],
            [-71.0417808, 42.2677682],
            [-71.0417315, 42.2680104],
            [-71.0416893, 42.268197],
            [-71.0416302, 42.2683578],
            [-71.0417308, 42.2690753],
            [-71.0425787, 42.2751248],
            [-71.0427596, 42.2767321],
            [-71.0427823, 42.2771023],
            [-71.0431639, 42.2768013],
            [-71.043904, 42.2764547],
            [-71.0443381, 42.2763226],
            [-71.0448326, 42.2762652],
            [-71.0453756, 42.2762814],
            [-71.0458135, 42.2763846],
            [-71.0467293, 42.2768531],
            [-71.0476862, 42.2774234],
            [-71.0485829, 42.277914],
            [-71.0492377, 42.2780639],
            [-71.0498019, 42.2781001],
            [-71.0512829, 42.2779246],
            [-71.0525967, 42.2776692],
            [-71.0532843, 42.2775018],
            [-71.0539116, 42.2772665],
            [-71.0544014, 42.2770191],
            [-71.0552452, 42.2763426],
            [-71.0555853, 42.2757095],
            [-71.0555746, 42.2750524],
            [-71.0553488, 42.274621],
            [-71.054986, 42.274155],
            [-71.0541064, 42.2734267],
            [-71.0537124, 42.2730513],
            [-71.0536563, 42.2728964],
            [-71.0535746, 42.2726707],
            [-71.0536193, 42.2722942],
            [-71.0537356, 42.2721219],
            [-71.0537637, 42.2720029],
            [-71.0539338, 42.2719271],
            [-71.0544319, 42.2717267],
            [-71.0553943, 42.2713962],
            [-71.0569426, 42.2706078],
            [-71.0587192, 42.2684793],
            [-71.0592793, 42.2680166],
            [-71.0607836, 42.2673333],
            [-71.0617633, 42.2671296],
            [-71.0621886, 42.267159],
            [-71.0626002, 42.2672057],
            [-71.0631025, 42.2673437],
            [-71.0635129, 42.2675604],
            [-71.0641416, 42.2679033],
            [-71.0643803, 42.2680757],
            [-71.0647442, 42.2686012],
            [-71.0649369, 42.2689707],
            [-71.0650328, 42.2692861],
            [-71.0650093, 42.2694846],
            [-71.0648248, 42.2697406],
            [-71.0647471, 42.2699555],
            [-71.0647819, 42.2701672],
            [-71.0649051, 42.2703913],
            [-71.0650976, 42.2706591],
            [-71.065459, 42.2710077],
            [-71.0657693, 42.2712018],
            [-71.0660361, 42.271269],
            [-71.0664142, 42.2713201],
            [-71.0669555, 42.2714046],
            [-71.0672818, 42.2714501],
            [-71.0675225, 42.2715058],
            [-71.0677045, 42.2714903],
            [-71.0678241, 42.271386],
            [-71.0679221, 42.2711657],
            [-71.0680509, 42.2709566],
            [-71.0681094, 42.2709298],
            [-71.0683593, 42.2708155],
            [-71.0688906, 42.2707079],
            [-71.0694102, 42.2706201],
            [-71.0701601, 42.2705899],
            [-71.0705681, 42.2706301],
            [-71.0708123, 42.2706561],
            [-71.0710498, 42.2707366],
            [-71.0712051, 42.2708033],
            [-71.071346, 42.2708369],
            [-71.0716798, 42.2708547],
            [-71.0720438, 42.2708174],
            [-71.0724306, 42.2706866],
            [-71.0727138, 42.2705278],
            [-71.0729152, 42.2703686],
            [-71.0731978, 42.270287],
            [-71.0739328, 42.2702567],
            [-71.0748308, 42.2702545],
            [-71.0752462, 42.2703001],
            [-71.0756311, 42.2704614],
            [-71.0760537, 42.2705237],
            [-71.0764918, 42.2705087],
            [-71.0768558, 42.2704549],
            [-71.0771084, 42.2703828],
            [-71.0775777, 42.2701544],
            [-71.0778459, 42.2700176],
            [-71.0781584, 42.2698919],
            [-71.0784054, 42.2697533],
            [-71.0787153, 42.269637],
            [-71.0788642, 42.2695801],
            [-71.079136, 42.2695357],
            [-71.0793858, 42.2695071],
            [-71.0798579, 42.2694722],
            [-71.0803209, 42.2694471],
            [-71.0808524, 42.2693217],
            [-71.0815127, 42.2690248],
            [-71.0824618, 42.2686753],
            [-71.0826147, 42.2686426],
            [-71.0827616, 42.2686345],
            [-71.0829793, 42.2686535],
            [-71.0833812, 42.2686885],
            [-71.0842415, 42.2688275],
            [-71.0853953, 42.269044],
            [-71.0861722, 42.269222],
            [-71.0869773, 42.2693781],
            [-71.0876313, 42.2695236],
            [-71.0881656, 42.2696614],
            [-71.0886505, 42.2697496],
            [-71.089051, 42.2697658],
            [-71.0894571, 42.2696883],
            [-71.0898204, 42.269539],
            [-71.090038, 42.2693224],
            [-71.0901908, 42.269076],
            [-71.0902113, 42.2689848],
            [-71.0901525, 42.268829],
            [-71.0899673, 42.2684159],
            [-71.0898567, 42.2680526],
            [-71.0898585, 42.267776],
            [-71.0899885, 42.2674727],
            [-71.0900995, 42.2667423],
            [-71.0902147, 42.2666538],
            [-71.0904981, 42.2665511],
            [-71.0908177, 42.2664805],
            [-71.0910236, 42.2665085],
            [-71.0913238, 42.266596],
            [-71.0918021, 42.2666792],
            [-71.0923004, 42.2667328],
            [-71.0926263, 42.266729],
            [-71.0927374, 42.2667467],
            [-71.092943, 42.2668462],
            [-71.0931248, 42.2670001],
            [-71.0934102, 42.2670825],
            [-71.093636, 42.2671129],
            [-71.0938984, 42.2671409],
            [-71.0941313, 42.2671319],
            [-71.0943847, 42.266992],
            [-71.0945938, 42.2667928],
            [-71.0947322, 42.2665044],
            [-71.0949921, 42.2661151],
            [-71.0951198, 42.2659205],
            [-71.0953542, 42.2656299],
            [-71.0955684, 42.2654258],
            [-71.0958537, 42.2652317],
            [-71.0961645, 42.2650056],
            [-71.0964321, 42.2647374],
            [-71.0967521, 42.2643386],
            [-71.0969206, 42.2639836],
            [-71.0972182, 42.2634636],
            [-71.0974831, 42.2630891],
            [-71.0977401, 42.262932],
            [-71.0978015, 42.262912],
            [-71.0982064, 42.2627806],
            [-71.0985043, 42.2627248],
            [-71.0988642, 42.2625903],
            [-71.0991182, 42.2623739],
            [-71.0995713, 42.2619557],
            [-71.0998018, 42.2617688],
            [-71.100236, 42.2614321],
            [-71.100732, 42.2610708],
            [-71.1010559, 42.2608422],
            [-71.1014864, 42.2605697],
            [-71.1018532, 42.2603784],
            [-71.1021553, 42.2601917],
            [-71.1024325, 42.2599779],
            [-71.1027994, 42.2597915],
            [-71.1033185, 42.259692],
            [-71.1038235, 42.2597357],
            [-71.1040621, 42.2598625],
            [-71.1041893, 42.2599864],
            [-71.1043774, 42.2602043],
            [-71.1045419, 42.2604691],
            [-71.1047568, 42.2606649],
            [-71.105002, 42.260804],
            [-71.1052609, 42.2608568],
            [-71.1055416, 42.2608726],
            [-71.1061372, 42.2607932],
            [-71.1069123, 42.2606871],
            [-71.1073164, 42.2606687],
            [-71.1075855, 42.2606795],
            [-71.1078411, 42.2607497],
            [-71.1081262, 42.2608814],
            [-71.1083378, 42.2610599],
            [-71.1084734, 42.261174],
            [-71.1086823, 42.2612636],
            [-71.1089547, 42.2612966],
            [-71.1091508, 42.2612948],
            [-71.1093255, 42.2612583],
            [-71.1096817, 42.2611731],
            [-71.1099811, 42.2611421],
            [-71.1102669, 42.2611356],
            [-71.1104648, 42.2611239],
            [-71.1107545, 42.261041],
            [-71.1111011, 42.2609162],
            [-71.111461, 42.2607693],
            [-71.1116596, 42.2606317],
            [-71.111867, 42.2604101],
            [-71.1121452, 42.2600407],
            [-71.1123542, 42.2598389],
            [-71.1125616, 42.2596199],
            [-71.1127588, 42.2594576],
            [-71.1130059, 42.2592559],
            [-71.113277, 42.2590315],
            [-71.1133253, 42.25899],
            [-71.1131499, 42.2588239],
            [-71.1130777, 42.258754],
            [-71.1113859, 42.2571539],
            [-71.1095445, 42.2554123],
            [-71.1094661, 42.2524163],
            [-71.109458, 42.2521143],
            [-71.1093474, 42.2479902],
            [-71.1145532, 42.2452905],
            [-71.1165248, 42.2442679],
            [-71.1259311, 42.2393894],
            [-71.1263811, 42.2391652],
            [-71.1262961, 42.2390632],
            [-71.1261689, 42.2389045],
            [-71.1260788, 42.2387955],
            [-71.1260245, 42.2386993],
            [-71.1259509, 42.2385652],
            [-71.1258736, 42.2384078],
            [-71.125769, 42.2382009],
            [-71.1257001, 42.2379562],
            [-71.1256808, 42.2379009],
            [-71.1256253, 42.237855],
            [-71.1255405, 42.2377811],
            [-71.1253805, 42.2376788],
            [-71.1248531, 42.2374763],
            [-71.1247634, 42.2374294],
            [-71.1246894, 42.2373651],
            [-71.1246116, 42.2372601],
            [-71.1245457, 42.2371494],
            [-71.1244573, 42.236861],
            [-71.1242359, 42.236546],
            [-71.1240843, 42.2363884],
            [-71.1236711, 42.2360786],
            [-71.1234781, 42.2359258],
            [-71.1233395, 42.2358534],
            [-71.1232695, 42.2357775],
            [-71.1229653, 42.2355758],
            [-71.1227547, 42.2354237],
            [-71.1226726, 42.2354061],
            [-71.1226377, 42.2353797],
            [-71.1226183, 42.2353098],
            [-71.1225172, 42.2351989],
            [-71.122475, 42.2350503],
            [-71.1224639, 42.234931],
            [-71.1224841, 42.2348467],
            [-71.1225661, 42.234766],
            [-71.1225988, 42.2346434],
            [-71.1225999, 42.2345989],
            [-71.122604, 42.2344368],
            [-71.1226395, 42.2343758],
            [-71.1227378, 42.234315],
            [-71.1229379, 42.2342487],
            [-71.1231103, 42.2342319],
            [-71.1233765, 42.2342531],
            [-71.1236072, 42.2342888],
            [-71.1238106, 42.2343214],
            [-71.1240533, 42.2343222],
            [-71.1242338, 42.234285],
            [-71.1243964, 42.2342027],
            [-71.1244616, 42.2341606],
            [-71.1245172, 42.2341059],
            [-71.1245878, 42.2340126],
            [-71.1246789, 42.2338413],
            [-71.1247186, 42.2337454],
            [-71.1247153, 42.2336406],
            [-71.1246617, 42.2335054],
            [-71.1246079, 42.2333111],
            [-71.1245299, 42.2332181],
            [-71.1245106, 42.2331569],
            [-71.1245031, 42.2330929],
            [-71.124524, 42.2329038],
            [-71.1245834, 42.2327788],
            [-71.1247448, 42.2326223],
            [-71.1248808, 42.2325399],
            [-71.1249729, 42.2324688],
            [-71.1250636, 42.2323585],
            [-71.1251191, 42.2322307],
            [-71.1252297, 42.2320566],
            [-71.1253518, 42.2319375],
            [-71.1254774, 42.2318826],
            [-71.1256067, 42.2318773],
            [-71.1258142, 42.2318692],
            [-71.1259516, 42.2318173],
            [-71.1260498, 42.2317565],
            [-71.1261642, 42.2316347],
            [-71.1262394, 42.231501],
            [-71.1263889, 42.2313706],
            [-71.1266088, 42.2312637],
            [-71.1267813, 42.2312264],
            [-71.1269966, 42.2312271],
            [-71.1272199, 42.2312074],
            [-71.1274198, 42.2311761],
            [-71.1275296, 42.2311153],
            [-71.1276323, 42.230976],
            [-71.1277549, 42.2307814],
            [-71.1279618, 42.2305442],
            [-71.1280784, 42.2303722],
            [-71.1282518, 42.2301836],
            [-71.1283815, 42.2300793],
            [-71.1285231, 42.2299866],
            [-71.1287751, 42.229819],
            [-71.1288298, 42.2297693],
            [-71.1288636, 42.2297205],
            [-71.1288892, 42.2296473],
            [-71.1289057, 42.2295106],
            [-71.1289538, 42.2293158],
            [-71.1290683, 42.2291387],
            [-71.1292025, 42.2289675],
            [-71.1293558, 42.2288545],
            [-71.1294856, 42.2287821],
            [-71.1296735, 42.2287536],
            [-71.1299556, 42.2287313],
            [-71.1301008, 42.2286678],
            [-71.1301913, 42.2285953],
            [-71.1302661, 42.2285043],
            [-71.1303469, 42.2283163],
            [-71.1305255, 42.2280899],
            [-71.130749, 42.2279112]
          ]
        ]
      }
    }
  ]
}
