{
  "type": "FeatureCollection",
  "licence": "Data © OpenStreetMap contributors, ODbL 1.0. http://osm.org/copyright",
  "features": [
    {
      "type": "Feature",
      "properties": {
        "place_id": 334645656,
        "osm_type": "relation",
        "osm_id": 1931998,
        "place_rank": 16,
        "category": "boundary",
        "type": "administrative",
        "importance": 0.490229657162627,
        "addresstype": "town",
        "name": "Winchester",
        "display_name": "Winchester, Middlesex County, Massachusetts, 01890, United States"
      },
      "bbox": [-71.1896355, 42.4355506, -71.1095213, 42.4738953],
      "geometry": {
        "type": "Polygon",
        "coordinates": [
          [
            [-71.1896355, 42.4498297],
            [-71.1874689, 42.4472686],
            [-71.1874523, 42.4472575],
            [-71.1864544, 42.4456264],
            [-71.1864516, 42.4456264],
            [-71.1861572, 42.445382],
            [-71.1857128, 42.4450042],
            [-71.1838155, 42.4446097],
            [-71.1839377, 42.4442875],
            [-71.1834599, 42.4441875],
            [-71.183504, 42.4440695],
            [-71.1835294, 42.4440014],
            [-71.1829794, 42.4439715],
            [-71.1825433, 42.443893],
            [-71.182563, 42.4436457],
            [-71.1789814, 42.4410143],
            [-71.1787575, 42.4408504],
            [-71.1786491, 42.4407695],
            [-71.1778858, 42.44021],
            [-71.1817756, 42.4367355],
            [-71.182277, 42.4362876],
            [-71.1556917, 42.4358378],
            [-71.1536528, 42.4358033],
            [-71.1498864, 42.4358398],
            [-71.1461665, 42.4357509],
            [-71.145836, 42.4357511],
            [-71.132331, 42.4355896],
            [-71.1290714, 42.4355506],
            [-71.1271491, 42.4388866],
            [-71.1219766, 42.4397865],
            [-71.1241379, 42.4441089],
            [-71.1234268, 42.445345],
            [-71.1213464, 42.4486701],
            [-71.1194021, 42.4534451],
            [-71.1095213, 42.4738953],
            [-71.1120526, 42.4738064],
            [-71.1238622, 42.4733922],
            [-71.125066, 42.4729794],
            [-71.1250757, 42.4729761],
            [-71.1460856, 42.4657707],
            [-71.1461106, 42.4657623],
            [-71.1523386, 42.4637016],
            [-71.1562356, 42.4569154],
            [-71.1603364, 42.4589094],
            [-71.1612923, 42.4593742],
            [-71.1618172, 42.4596294],
            [-71.162989, 42.4601992],
            [-71.1643779, 42.4597464],
            [-71.1896355, 42.4498297]
          ]
        ]
      }
    }
  ]
}
