{
  "type": "FeatureCollection",
  "licence": "Data © OpenStreetMap contributors, ODbL 1.0. http://osm.org/copyright",
  "features": [
    {
      "type": "Feature",
      "properties": {
        "place_id": 336867807,
        "osm_type": "relation",
        "osm_id": 1931999,
        "place_rank": 16,
        "category": "boundary",
        "type": "administrative",
        "importance": 0.516131343493649,
        "addresstype": "town",
        "name": "Woburn",
        "display_name": "Woburn, Middlesex County, Massachusetts, 01801, United States"
      },
      "bbox": [-71.2069672, 42.4498297, -71.1120526, 42.5300008],
      "geometry": {
        "type": "Polygon",
        "coordinates": [
          [
            [-71.2069672, 42.4636243],
            [-71.2021248, 42.4598499],
            [-71.1984461, 42.4569824],
            [-71.1954131, 42.4535907],
            [-71.1938436, 42.4531408],
            [-71.190566, 42.4504547],
            [-71.1896355, 42.4498297],
            [-71.1643779, 42.4597464],
            [-71.162989, 42.4601992],
            [-71.1618172, 42.4596294],
            [-71.1612923, 42.4593742],
            [-71.1603364, 42.4589094],
            [-71.1562356, 42.4569154],
            [-71.1523386, 42.4637016],
            [-71.1461106, 42.4657623],
            [-71.1460856, 42.4657707],
            [-71.1250757, 42.4729761],
            [-71.125066, 42.4729794],
            [-71.1238622, 42.4733922],
            [-71.1120526, 42.4738064],
            [-71.1167957, 42.4946396],
            [-71.1217378, 42.498737],
            [-71.1197596, 42.5002925],
            [-71.1219597, 42.5042787],
            [-71.1223959, 42.5041537],
            [-71.1241763, 42.5075259],
            [-71.1238652, 42.5076176],
            [-71.1242263, 42.5083954],
            [-71.1354539, 42.5300008],
            [-71.1700344, 42.5155378],
            [-71.1699989, 42.515156],
            [-71.1699633, 42.5147741],
            [-71.1696459, 42.5113628],
            [-71.1702589, 42.5104522],
            [-71.169497, 42.5102288],
            [-71.1698534, 42.5096855],
            [-71.1694733, 42.509488],
            [-71.1693247, 42.5078726],
            [-71.169675, 42.5075043],
            [-71.1693522, 42.5073603],
            [-71.1699233, 42.5067316],
            [-71.1691991, 42.5065083],
            [-71.1684385, 42.4981496],
            [-71.1689143, 42.4905471],
            [-71.1707198, 42.4897555],
            [-71.1689229, 42.4870862],
            [-71.1814999, 42.483622],
            [-71.181375, 42.4833859],
            [-71.1829442, 42.4821221],
            [-71.1846413, 42.481733],
            [-71.1865064, 42.4809797],
            [-71.1857594, 42.4802395],
            [-71.1855063, 42.4800077],
            [-71.1854777, 42.4799642],
            [-71.1873966, 42.4793647],
            [-71.1879506, 42.4795586],
            [-71.1882787, 42.4796963],
            [-71.2043085, 42.4658383],
            [-71.2069672, 42.4636243]
          ]
        ]
      }
    }
  ]
}
